{
 "generated_at": "2026-07-19T07:26:41Z",
 "sources": [
  {
   "name": "CelesTrak",
   "url": "https://celestrak.org/NORAD/elements/",
   "license": "frei verfügbar; Attribution. Ursprünglich USSPACECOM/Space-Track."
  },
  {
   "name": "GCAT (J. McDowell, planet4589.org)",
   "url": "https://planet4589.org/space/gcat/",
   "license": "CC-BY 4.0"
  }
 ],
 "satellites": [
  {
   "norad": 28376,
   "name": "AURA",
   "intl": "2004-026A",
   "group": "resource",
   "gcat": {
    "class": "C",
    "category": "EOSCI",
    "owner": "GSFC",
    "state": "US"
   },
   "omm": {
    "OBJECT_NAME": "AURA",
    "OBJECT_ID": "2004-026A",
    "EPOCH": "2026-07-18T19:47:42.288864",
    "MEAN_MOTION": 14.61370724,
    "ECCENTRICITY": 0.0001372,
    "INCLINATION": 98.3432,
    "RA_OF_ASC_NODE": 156.5439,
    "ARG_OF_PERICENTER": 93.9382,
    "MEAN_ANOMALY": 266.1975,
    "EPHEMERIS_TYPE": 0,
    "CLASSIFICATION_TYPE": "U",
    "NORAD_CAT_ID": 28376,
    "ELEMENT_SET_NO": 999,
    "REV_AT_EPOCH": 17083,
    "BSTAR": 0.000079964,
    "MEAN_MOTION_DOT": 0.00000347,
    "MEAN_MOTION_DDOT": 0
   }
  },
  {
   "norad": 63772,
   "name": "BIOMASS",
   "intl": "2025-090A",
   "group": "resource",
   "gcat": {
    "class": "C",
    "category": "EOSCI",
    "owner": "ESA",
    "state": "I-ESA"
   },
   "omm": {
    "OBJECT_NAME": "BIOMASS",
    "OBJECT_ID": "2025-090A",
    "EPOCH": "2026-07-18T19:25:10.437312",
    "MEAN_MOTION": 14.67534427,
    "ECCENTRICITY": 0.0001446,
    "INCLINATION": 98.075,
    "RA_OF_ASC_NODE": 26.6638,
    "ARG_OF_PERICENTER": 91.7334,
    "MEAN_ANOMALY": 268.4036,
    "EPHEMERIS_TYPE": 0,
    "CLASSIFICATION_TYPE": "U",
    "NORAD_CAT_ID": 63772,
    "ELEMENT_SET_NO": 999,
    "REV_AT_EPOCH": 6532,
    "BSTAR": 0.000046686,
    "MEAN_MOTION_DOT": 0.00000217,
    "MEAN_MOTION_DDOT": 0
   }
  },
  {
   "norad": 57693,
   "name": "CAPELLA-11 (ACADIA-1)",
   "intl": "2023-126A",
   "group": "sar",
   "gcat": {
    "class": "B",
    "category": "IMG-R",
    "owner": "CAPSP",
    "state": "US"
   },
   "omm": {
    "OBJECT_NAME": "CAPELLA-11 (ACADIA-1)",
    "OBJECT_ID": "2023-126A",
    "EPOCH": "2026-07-17T00:06:54.491040",
    "MEAN_MOTION": 14.8508367,
    "ECCENTRICITY": 0.00023385,
    "INCLINATION": 53.0067,
    "RA_OF_ASC_NODE": 55.4245,
    "ARG_OF_PERICENTER": 134.2199,
    "MEAN_ANOMALY": 225.8973,
    "EPHEMERIS_TYPE": 0,
    "CLASSIFICATION_TYPE": "U",
    "NORAD_CAT_ID": 57693,
    "ELEMENT_SET_NO": 999,
    "REV_AT_EPOCH": 15655,
    "BSTAR": 0.00025504119,
    "MEAN_MOTION_DOT": 0.00001969,
    "MEAN_MOTION_DDOT": 0
   }
  },
  {
   "norad": 60419,
   "name": "CAPELLA-13 (ACADIA-3)",
   "intl": "2024-142A",
   "group": "sar",
   "gcat": {
    "class": "B",
    "category": "IMG-R",
    "owner": "CAPSP",
    "state": "US"
   },
   "omm": {
    "OBJECT_NAME": "CAPELLA-13 (ACADIA-3)",
    "OBJECT_ID": "2024-142A",
    "EPOCH": "2026-07-18T14:35:12.597216",
    "MEAN_MOTION": 14.87658319,
    "ECCENTRICITY": 0.0001349,
    "INCLINATION": 53.0045,
    "RA_OF_ASC_NODE": 280.4176,
    "ARG_OF_PERICENTER": 88.5673,
    "MEAN_ANOMALY": 271.5462,
    "EPHEMERIS_TYPE": 0,
    "CLASSIFICATION_TYPE": "U",
    "NORAD_CAT_ID": 60419,
    "ELEMENT_SET_NO": 999,
    "REV_AT_EPOCH": 10508,
    "BSTAR": 0.00022511,
    "MEAN_MOTION_DOT": 0.00001832,
    "MEAN_MOTION_DDOT": 0
   }
  },
  {
   "norad": 59444,
   "name": "CAPELLA-14 (ACADIA-4)",
   "intl": "2024-066C",
   "group": "sar",
   "gcat": {
    "class": "B",
    "category": "IMG-R",
    "owner": "CAPSP",
    "state": "US"
   },
   "omm": {
    "OBJECT_NAME": "CAPELLA-14 (ACADIA-4)",
    "OBJECT_ID": "2024-066C",
    "EPOCH": "2026-07-16T10:16:18.323904",
    "MEAN_MOTION": 15.07675032,
    "ECCENTRICITY": 0.0002747,
    "INCLINATION": 45.6012,
    "RA_OF_ASC_NODE": 101.4049,
    "ARG_OF_PERICENTER": 73.4558,
    "MEAN_ANOMALY": 286.6628,
    "EPHEMERIS_TYPE": 0,
    "CLASSIFICATION_TYPE": "U",
    "NORAD_CAT_ID": 59444,
    "ELEMENT_SET_NO": 999,
    "REV_AT_EPOCH": 11690,
    "BSTAR": 0.00034717,
    "MEAN_MOTION_DOT": 0.0000513,
    "MEAN_MOTION_DDOT": 0
   }
  },
  {
   "norad": 60544,
   "name": "CAPELLA-15 (ACADIA-5)",
   "intl": "2024-149CE",
   "group": "sar",
   "gcat": {
    "class": "B",
    "category": "IMG-R",
    "owner": "CAPSP",
    "state": "US"
   },
   "omm": {
    "OBJECT_NAME": "CAPELLA-15 (ACADIA-5)",
    "OBJECT_ID": "2024-149CE",
    "EPOCH": "2026-07-18T18:25:46.653312",
    "MEAN_MOTION": 14.92397955,
    "ECCENTRICITY": 0.0003065,
    "INCLINATION": 97.6759,
    "RA_OF_ASC_NODE": 271.8791,
    "ARG_OF_PERICENTER": 324.5067,
    "MEAN_ANOMALY": 35.5948,
    "EPHEMERIS_TYPE": 0,
    "CLASSIFICATION_TYPE": "U",
    "NORAD_CAT_ID": 60544,
    "ELEMENT_SET_NO": 999,
    "REV_AT_EPOCH": 10456,
    "BSTAR": 0.00015961,
    "MEAN_MOTION_DOT": 0.00001579,
    "MEAN_MOTION_DDOT": 0
   }
  },
  {
   "norad": 65318,
   "name": "CAPELLA-16 (ACADIA-6)",
   "intl": "2025-188D",
   "group": "sar",
   "gcat": {
    "class": "B",
    "category": "IMG-R",
    "owner": "CAPSP",
    "state": "US"
   },
   "omm": {
    "OBJECT_NAME": "CAPELLA-16 (ACADIA-6)",
    "OBJECT_ID": "2025-188D",
    "EPOCH": "2026-07-18T18:29:51.580032",
    "MEAN_MOTION": 14.94074135,
    "ECCENTRICITY": 0.000587,
    "INCLINATION": 97.7377,
    "RA_OF_ASC_NODE": 274.4508,
    "ARG_OF_PERICENTER": 125.7448,
    "MEAN_ANOMALY": 234.4318,
    "EPHEMERIS_TYPE": 0,
    "CLASSIFICATION_TYPE": "U",
    "NORAD_CAT_ID": 65318,
    "ELEMENT_SET_NO": 999,
    "REV_AT_EPOCH": 4863,
    "BSTAR": 0.00028029,
    "MEAN_MOTION_DOT": 0.00002938,
    "MEAN_MOTION_DDOT": 0
   }
  },
  {
   "norad": 64583,
   "name": "CAPELLA-17 (ACADIA-7)",
   "intl": "2025-135BH",
   "group": "sar",
   "gcat": {
    "class": "B",
    "category": "IMG-R",
    "owner": "CAPSP",
    "state": "US"
   },
   "omm": {
    "OBJECT_NAME": "CAPELLA-17 (ACADIA-7)",
    "OBJECT_ID": "2025-135BH",
    "EPOCH": "2026-07-18T19:14:52.823328",
    "MEAN_MOTION": 14.91643835,
    "ECCENTRICITY": 0.0004217,
    "INCLINATION": 97.7711,
    "RA_OF_ASC_NODE": 312.959,
    "ARG_OF_PERICENTER": 234.1727,
    "MEAN_ANOMALY": 125.9101,
    "EPHEMERIS_TYPE": 0,
    "CLASSIFICATION_TYPE": "U",
    "NORAD_CAT_ID": 64583,
    "ELEMENT_SET_NO": 999,
    "REV_AT_EPOCH": 5856,
    "BSTAR": 0.00034234,
    "MEAN_MOTION_DOT": 0.00003384,
    "MEAN_MOTION_DDOT": 0
   }
  },
  {
   "norad": 67385,
   "name": "CAPELLA-18 (ACADIA-8)",
   "intl": "2026-004Y",
   "group": "sar",
   "gcat": {
    "class": "B",
    "category": "IMG-R",
    "owner": "CAPSP",
    "state": "US"
   },
   "omm": {
    "OBJECT_NAME": "CAPELLA-18 (ACADIA-8)",
    "OBJECT_ID": "2026-004Y",
    "EPOCH": "2026-07-18T17:00:23.211072",
    "MEAN_MOTION": 14.86646395,
    "ECCENTRICITY": 0.0001454,
    "INCLINATION": 97.8019,
    "RA_OF_ASC_NODE": 197.6663,
    "ARG_OF_PERICENTER": 95.5262,
    "MEAN_ANOMALY": 264.612,
    "EPHEMERIS_TYPE": 0,
    "CLASSIFICATION_TYPE": "U",
    "NORAD_CAT_ID": 67385,
    "ELEMENT_SET_NO": 999,
    "REV_AT_EPOCH": 2796,
    "BSTAR": 0.000218,
    "MEAN_MOTION_DOT": 0.00001882,
    "MEAN_MOTION_DDOT": 0
   }
  },
  {
   "norad": 67384,
   "name": "CAPELLA-19 (ACADIA-9)",
   "intl": "2026-004X",
   "group": "sar",
   "gcat": {
    "class": "B",
    "category": "IMG-R",
    "owner": "CAPSP",
    "state": "US"
   },
   "omm": {
    "OBJECT_NAME": "CAPELLA-19 (ACADIA-9)",
    "OBJECT_ID": "2026-004X",
    "EPOCH": "2026-07-18T03:50:33.664704",
    "MEAN_MOTION": 14.86633532,
    "ECCENTRICITY": 0.00010413,
    "INCLINATION": 97.8003,
    "RA_OF_ASC_NODE": 196.9723,
    "ARG_OF_PERICENTER": 69.5054,
    "MEAN_ANOMALY": 290.6274,
    "EPHEMERIS_TYPE": 0,
    "CLASSIFICATION_TYPE": "U",
    "NORAD_CAT_ID": 67384,
    "ELEMENT_SET_NO": 999,
    "REV_AT_EPOCH": 2787,
    "BSTAR": 0.00027382546,
    "MEAN_MOTION_DOT": 0.00002377,
    "MEAN_MOTION_DDOT": 0
   }
  }
 ]
}
